#cP2014  1 31  0  0  0.00000000      96 ORBIT IGb08 HLM  IGS
## 1777 432000.00000000   900.00000000 56688 0.0000000000000
+   32   G01G02G03G04G05G06G07G08G09G10G11G12G13G14G15G16G17
+        G18G19G20G21G22G23G24G25G26G27G28G29G30G31G32  0  0
+          0  0  0  0  0  0  0  0  0  0  0  0  0  0  0  0  0
+          0  0  0  0  0  0  0  0  0  0  0  0  0  0  0  0  0
+          0  0  0  0  0  0  0  0  0  0  0  0  0  0  0  0  0
++         2  2  2  2  2  2  2  2  3  2  2  2  2  3  2  3  3
++         2  2  2  2  2  2  2  2  2  2  2  2  0  2  2  0  0
++         0  0  0  0  0  0  0  0  0  0  0  0  0  0  0  0  0
++         0  0  0  0  0  0  0  0  0  0  0  0  0  0  0  0  0
++         0  0  0  0  0  0  0  0  0  0  0  0  0  0  0  0  0
%c G  cc GPS ccc cccc cccc cccc cccc ccccc ccccc ccccc ccccc
%c cc cc ccc ccc cccc cccc cccc cccc ccccc ccccc ccccc ccccc
%f  1.2500000  1.025000000  0.00000000000  0.000000000000000
%f  0.0000000  0.000000000  0.00000000000  0.000000000000000
%i    0    0    0    0      0      0      0      0         0
%i    0    0    0    0      0      0      0      0         0
/* FINAL ORBIT COMBINATION FROM WEIGHTED AVERAGE OF:        
/* cod emr esa gfz grg jpl mit ngs sio                      
/* REFERENCED TO IGS TIME (IGST) AND TO WEIGHTED MEAN POLE: 
/* PCV:IGS08_1771 OL/AL:FES2004  NONE     Y  ORB:CMB CLK:CMB
*  2014  1 31 22 30  0.00000000
PG01 -22260.158698 -12225.696875   7950.442180    104.032742  6  6  6 159       
PG02  11701.590677  21104.778731  11905.768646    476.016781  6  5  7 128       
PG03  -8990.268407 -13306.631792 -21706.358315    319.821270  7  5  7 129       
PG04  -3675.672866  16386.437371  20218.873388      5.210553  5  3  7 108       
PG05   4306.690532  23226.214262 -12028.357310   -390.337027  7  7  5 136       
PG06    -63.397971 -16331.758116 -20826.926266    258.064377  9  3  4 118       
PG07 -18750.571956    192.820967 -18868.892160    308.907687  8  9  8 133       
PG08 -10888.528419   9331.972096 -22211.231805     11.671180  3  9  9 135       
PG09  -9592.507526  11495.088211 -22467.359909 999999.999999
PG10  -8905.406768  24189.559296   5055.673437   -112.374504  6  4  1 127       
PG11 -23179.732925 -12904.692840  -3291.388814   -460.406037  9  6  8 102       
PG12  12458.458670   9250.661561  21539.234512    183.652308  6  7  6 124       
PG13 -26125.513620   4984.217329   1375.419598     34.229385  9  7  6 130       
PG14  17551.387630 -14378.153362  13902.881135    202.016836  8  8  4 123       
PG15  18210.020631   7284.911851 -18085.186312   -160.653139  9  9  4 145       
PG16  -2888.491625 -22910.138102 -12833.286173   -233.287938 10  8  8 157       
PG17 -16329.994533  15198.013136  14480.170111    -64.264311  6  5  6 134       
PG18  15599.555342 -11724.297058 -17439.715382    299.314364  8  8  8 108       
PG19 -16956.538689  -9174.689009 -18578.850030   -435.911845 10  8  7 125       
PG20 -15011.074165  -6000.485760  20888.877607    157.766865  7  6  6 112       
PG21  18511.655847  -2112.648901 -18488.898117   -341.401996  6  8  3  59       
PG22  11221.251400 -22151.824082  -9012.725084    210.412382  7  6  6 142       
PG23 -23596.194589  -1648.622859  12569.949464      7.854874  8  6  6 117       
PG24  21481.071304  15343.397066   3317.263344    -22.535580  8  8  5 135       
PG25  15437.090142  -5381.948934  20849.239909     12.242077  4  7  2 106       
PG26   5621.741535  14227.123239 -22385.155445    178.185023  4  7  6 105       
PG27  -3338.331156 -14872.636669 -21751.819986    -17.039417  8  7  8 109       
PG28 -12825.107535  20039.356491 -11042.304408    329.012806  6  6  6 124       
PG29  25810.394095  -3869.051922   4860.231949    507.533875  8  9  2 145       
PG30   7129.523101 -25320.155620   2573.697526 999999.999999
PG31    382.366762 -17765.391834  19800.991577    332.877621  7  3  5 125       
PG32  -7907.258381 -18479.812607  17692.773020   -493.107392  8  5  6 118       
*  2014  1 31 22 45  0.00000000
PG01 -22693.897000 -12887.639239   5235.191758    104.034845  6  6  6 157       
PG02  10436.212684  20386.682063  14125.961795    476.019107  6  4  8 130       
PG03  -6911.487963 -14463.188125 -21713.471894    319.824681  8  5  7 127       
PG04  -5621.450743  14932.055674  20898.620143      5.210856  5  3  8 106       
PG05   3850.064376  24406.534926  -9574.792129   -390.336153  6  7  6 139       
PG06   2127.131605 -17211.544740 -19958.680663    258.077553  9  4  4 107       
PG07 -20248.009662  -1232.967112 -17245.205259    308.911802  9  9  8 137       
PG08 -12664.246995   7500.688861 -22016.608377     11.670324  3  9  9 135       
PG09 -11478.571332   9944.719428 -22332.420576 999999.999999
PG10  -9094.255784  23360.218223   7766.374490   -112.374833  6  4  2 122       
PG11 -22580.838264 -13118.188782  -5920.631501   -460.408950  9  6  9 110       
PG12  11935.932322  11610.192709  20696.652847    183.654696  6  7  7 131       
PG13 -25851.072031   4713.516169   4234.615239     34.225963  9  7  6 129       
PG14  18974.771490 -14603.169586  11552.602598    202.014017  9  9  4 119       
PG15  16292.572982   8236.404347 -19432.431948   -160.654976  9  8  4 145       
PG16  -2429.466912 -24170.239144 -10341.710388   -233.286267 10  8  9 150       
PG17 -17812.489312  15481.839505  12193.258901    -64.267452  6  5  6 127       
PG18  15461.192873  -9542.415327 -18835.403396    299.316640  8  8  8 115       
PG19 -14892.833846  -9837.002265 -19929.103638   -435.914207 10  8  6 133       
PG20 -14690.518955  -8387.550053  20298.413987    157.769751  8  6  6 117       
PG21  20064.321425   -635.994516 -17011.002602   -341.403749  6  8  4  56       
PG22  11357.141096 -20906.915375 -11449.694613    210.414337  7  7  7 139       
PG23 -22217.192517  -2353.141951  14758.058204      7.852063  8  5  6 123       
PG24  21490.937298  15679.618164    483.012615    -22.535982  8  8  6 129       
PG25  15111.392306  -2965.934292  21567.945308     12.243967  4  7  2 113       
PG26   3285.860623  14849.742805 -22419.531299    178.175286  4  7  6 113       
PG27  -1020.546712 -15719.164180 -21382.774495    -17.040777  9  7  8 124       
PG28 -12668.190198  18545.844700 -13453.305455    329.015607  5  7  6 119       
PG29  25204.401757  -3437.395730   7614.023908    507.536278  8  9  3 143       
PG30   7257.656346 -24812.495350   5430.801667 999999.999999
PG31   2178.759314 -16325.291248  20929.444849    332.877988  7  5  5 126       
PG32  -7294.004463 -20281.173075  15934.656014   -493.101971  8  4  7 115       
*  2014  1 31 23  0  0.00000000
PG01 -22910.073621 -13341.667611   2430.411516    104.036981  6  5  6 161       
PG02   8943.879868  19599.704786  16112.348681    476.020912  6  4  8 132       
PG03  -4907.112655 -15712.826009 -21364.463838    319.830065  8  5  7 137       
PG04  -7678.688004  13539.845120  21207.726293      5.210846  5  4  8 114       
PG05   3480.988578  25322.618129  -6955.295636   -390.334458  6  7  6 143       
PG06   4170.590443 -18143.086930 -18742.344457    258.090879 10  5  4 114       
PG07 -21660.059002  -2451.772276 -15326.901461    308.915300 10  9  8 143       
PG08 -14505.954079   5809.040841 -21439.859016     11.671202  4 10  9 146       
PG09 -13421.066580   8525.782250 -21831.935869 999999.999999
PG10  -9287.950240  22239.262060  10338.504210   -112.375591  7  4  3 126       
PG11 -21722.893721 -13263.282825  -8450.461729   -460.411920 10  6  9 102       
PG12  11563.356909  13878.571224  19498.067174    183.656751  5  7  6 132       
PG13 -25288.337662   4327.362397   7021.368073     34.222336  9  8  6 125       
PG14  20125.382247 -14809.252539   9004.071451    202.011371  9  9  5 119       
PG15  14302.812222   9339.842460 -20449.118061   -160.656809  9  8  5 148       
PG16  -2086.354590 -25163.015838  -7668.946546   -233.285000  9  8  9 146       
PG17 -19028.972406  15743.006627   9696.613590    -64.270549  7  4  6 129       
PG18  15407.139039  -7217.088467 -19892.312727    299.318552  8  9  8 117       
PG19 -12739.300500 -10652.953814 -20943.767211   -435.916539 10  8  6 121       
PG20 -14484.897633 -10698.537651  19353.224399    157.773192  8  7  6 117       
PG21  21529.444647    650.916180 -15232.016832   -341.405597  6  8  5  53       
PG22  11523.221977 -19405.136155 -13686.097234    210.416147  8  8  7 145       
PG23 -20663.457178  -3220.951775  16698.246787      7.849182  8  6  5 124       
PG24  21256.800764  15829.259140  -2359.507159    -22.536369  9  8  7 133       
PG25  14911.036457   -476.657940  21913.075293     12.245855  4  7  2 119       
PG26   1000.948391  15598.837379 -22090.338445    178.165490  4  6  6 115       
PG27   1192.936625 -16660.271854 -20645.734692    -17.042135  9  7  9 141       
PG28 -12552.038862  16780.575805 -15622.552437    329.018469  5  7  6 121       
PG29  24338.176787  -2864.476938  10236.665903    507.538656  8  9  3 147       
PG30   7377.094661 -23993.266869   8192.890495 999999.999999
PG31   4134.130417 -14923.022661  21700.699965    332.878413  7  6  6 128       
PG32  -6814.721795 -21901.580330  13909.690510   -493.096730  8  3  7 125       
EOF
